{
    "type": "FeatureCollection",
    "generator": "overpass-ide",
    "copyright": "The data included in this document is from www.openstreetmap.org. The data is made available under ODbL.",
    "timestamp": "2023-01-27T20:10:19Z",
    "features": [
        {
            "type": "Feature",
            "properties": {
                "@id": "node/268781942",
                "addr:city": "Praha",
                "addr:conscriptionnumber": "693",
                "addr:country": "CZ",
                "addr:housenumber": "693/110",
                "addr:place": "\u017di\u017ekov",
                "addr:postcode": "13000",
                "addr:street": "Bo\u0159ivojova",
                "addr:streetnumber": "110",
                "addr:suburb": "Praha 3",
                "amenity": "restaurant",
                "facebook": "https://www.facebook.com/uhoudku/",
                "name": "U Houdk\u016f",
                "opening_hours": "Mo-Su 11:00-23:45",
                "outdoor_seating": "yes",
                "phone": "+420 222 711 239",
                "ref:ruian:addr": "21773891",
                "smoking": "outside",
                "source:addr": "cuzk:ruian",
                "source:loc": "survey",
                "website": "http://www.uhoudku.websnadno.cz/",
                "cluster_id": false
            },
            "geometry": {
                "type": "Point",
                "coordinates": [
                    14.4457779,
                    50.0824314
                ]
            },
            "id": "node/268781942"
        },
        {
            "type": "Feature",
            "properties": {
                "@id": "node/296443989",
                "addr:conscriptionnumber": "1323",
                "addr:housenumber": "1323/84",
                "addr:postcode": "13000",
                "addr:street": "Slezsk\u00e1",
                "addr:streetnumber": "84",
                "source:addr": "uir_adr",
                "uir_adr:ADRESA_KOD": "21761159",
                "cluster_id": false
            },
            "geometry": {
                "type": "Point",
                "coordinates": [
                    14.4516098,
                    50.0761998
                ]
            },
            "id": "node/296443989"
        }
    ]
}